{
    "links": {
        "self": "http://www.neowsapp.com/rest/v1/neo/3879728?api_key=iIulBulltgU6a56xZRHN4H3l9WmuAYTsLGpBGhQ2"
    },
    "id": "3879728",
    "neo_reference_id": "3879728",
    "name": "(2019 UW6)",
    "designation": "2019 UW6",
    "nasa_jpl_url": "http://ssd.jpl.nasa.gov/sbdb.cgi?sstr=3879728",
    "absolute_magnitude_h": 26.6,
    "estimated_diameter": {
        "kilometers": {
            "estimated_diameter_min": 0.0127219879,
            "estimated_diameter_max": 0.0284472297
        },
        "meters": {
            "estimated_diameter_min": 12.7219878539,
            "estimated_diameter_max": 28.4472296503
        },
        "miles": {
            "estimated_diameter_min": 0.0079050743,
            "estimated_diameter_max": 0.0176762835
        },
        "feet": {
            "estimated_diameter_min": 41.7388066307,
            "estimated_diameter_max": 93.330808926
        }
    },
    "is_potentially_hazardous_asteroid": false,
    "close_approach_data": [
        {
            "close_approach_date": "2015-10-16",
            "close_approach_date_full": "2015-Oct-16 12:09",
            "epoch_date_close_approach": 1444997340000,
            "relative_velocity": {
                "kilometers_per_second": "13.2422703015",
                "kilometers_per_hour": "47672.1730852524",
                "miles_per_hour": "29621.6344373336"
            },
            "miss_distance": {
                "astronomical": "0.1276848325",
                "lunar": "49.6693998425",
                "kilometers": "19101378.973306775",
                "miles": "11869046.519012495"
            },
            "orbiting_body": "Earth"
        },
        {
            "close_approach_date": "2017-10-20",
            "close_approach_date_full": "2017-Oct-20 15:50",
            "epoch_date_close_approach": 1508514600000,
            "relative_velocity": {
                "kilometers_per_second": "12.1072351781",
                "kilometers_per_hour": "43586.0466410873",
                "miles_per_hour": "27082.6743698467"
            },
            "miss_distance": {
                "astronomical": "0.0674005371",
                "lunar": "26.2188089319",
                "kilometers": "10082976.787015977",
                "miles": "6265271.2509634026"
            },
            "orbiting_body": "Earth"
        },
        {
            "close_approach_date": "2019-10-25",
            "close_approach_date_full": "2019-Oct-25 08:27",
            "epoch_date_close_approach": 1571992020000,
            "relative_velocity": {
                "kilometers_per_second": "11.3468315198",
                "kilometers_per_hour": "40848.5934711889",
                "miles_per_hour": "25381.727426584"
            },
            "miss_distance": {
                "astronomical": "0.02476539",
                "lunar": "9.63373671",
                "kilometers": "3704849.5937193",
                "miles": "2302086.78835434"
            },
            "orbiting_body": "Earth"
        },
        {
            "close_approach_date": "2021-10-26",
            "close_approach_date_full": "2021-Oct-26 12:17",
            "epoch_date_close_approach": 1635250620000,
            "relative_velocity": {
                "kilometers_per_second": "11.1054873121",
                "kilometers_per_hour": "39979.754323533",
                "miles_per_hour": "24841.8645684197"
            },
            "miss_distance": {
                "astronomical": "0.0203685522",
                "lunar": "7.9233668058",
                "kilometers": "3047092.024103814",
                "miles": "1893375.1868040732"
            },
            "orbiting_body": "Earth"
        }
    ],
    "orbital_data": {
        "orbit_id": "1",
        "orbit_determination_date": "2019-10-26 04:12:40",
        "first_observation_date": "2019-10-24",
        "last_observation_date": "2019-10-26",
        "data_arc_in_days": 2,
        "observations_used": 20,
        "orbit_uncertainty": "7",
        "minimum_orbit_intersection": ".0202365",
        "jupiter_tisserand_invariant": "4.251",
        "epoch_osculation": "2459000.5",
        "eccentricity": ".3863195484688027",
        "semi_major_axis": "1.588965646979422",
        "inclination": "16.68660095693833",
        "ascending_node_longitude": "31.17049910271733",
        "orbital_period": "731.5940905978198",
        "perihelion_distance": ".975117155705893",
        "perihelion_argument": "31.25951850616081",
        "aphelion_distance": "2.202814138252951",
        "perihelion_time": "2458807.540292230519",
        "mean_anomaly": "94.95086919065949",
        "mean_motion": ".4920761452649612",
        "equinox": "J2000",
        "orbit_class": {
            "orbit_class_type": "APO",
            "orbit_class_description": "Near-Earth asteroid orbits which cross the Earth’s orbit similar to that of 1862 Apollo",
            "orbit_class_range": "a (semi-major axis) > 1.0 AU; q (perihelion) < 1.017 AU"
        }
    },
    "is_sentry_object": false
}